start=new Date('2022-08-06T00:00:00.000Z').valueOf();
sats=[{"CLASSIFICATION_TYPE":"U","BSTAR":"0.00098487000000","MEAN_MOTION":"15.51724646","REV_AT_EPOCH":"130","DECAY_DATE":null,"SITE":"AFWTR","OBJECT_NAME":"STARLINK-4344","OBJECT_ID":"2022-077AF","PERIOD":"92.800","TLE_LINE2":"2 53072  97.6556  37.6102 0001588  74.1826 237.8938 15.51724646  1301","MEAN_ANOMALY":"237.8938","MEAN_ELEMENT_THEORY":"SGP4","COUNTRY_CODE":"US","ECCENTRICITY":"0.00015880","OBJECT_TYPE":"PAYLOAD","PERIAPSIS":"410.614","MEAN_MOTION_DOT":"0.00058922","ELEMENT_SET_NO":"999","ARG_OF_PERICENTER":"74.1826","TIME_SYSTEM":"UTC","LAUNCH_DATE":"2022-07-11","NORAD_CAT_ID":"53072","EPHEMERIS_TYPE":"0","GP_ID":"209660160","TLE_LINE1":"1 53072U 22077AF  22217.91667824  .00058922  00000-0  98487-3 0  9997","MEAN_MOTION_DDOT":"0.0000000000000","RA_OF_ASC_NODE":"37.6102","APOAPSIS":"412.771","INCLINATION":"97.6556","RCS_SIZE":"LARGE","CENTER_NAME":"EARTH","FILE":"3530042","EPOCH":"2022-08-05T22:00:00.999936","SEMIMAJOR_AXIS":"6789.827","REF_FRAME":"TEME"},{"MEAN_MOTION":"15.51748483","REV_AT_EPOCH":"130","CLASSIFICATION_TYPE":"U","BSTAR":"0.00135070000000","OBJECT_ID":"2022-077AG","OBJECT_NAME":"STARLINK-4346","PERIOD":"92.799","TLE_LINE2":"2 53073  97.6567  37.6085 0001488  83.1413 232.7668 15.51748483  1304","SITE":"AFWTR","DECAY_DATE":null,"OBJECT_TYPE":"PAYLOAD","PERIAPSIS":"410.613","MEAN_ELEMENT_THEORY":"SGP4","MEAN_ANOMALY":"232.7668","ECCENTRICITY":"0.00014880","COUNTRY_CODE":"US","MEAN_MOTION_DOT":"0.00081142","ARG_OF_PERICENTER":"83.1413","ELEMENT_SET_NO":"999","EPHEMERIS_TYPE":"0","TLE_LINE1":"1 53073U 22077AG  22217.91667824  .00081142  00000-0  13507-2 0  9997","GP_ID":"209659890","TIME_SYSTEM":"UTC","NORAD_CAT_ID":"53073","LAUNCH_DATE":"2022-07-11","RCS_SIZE":"LARGE","CENTER_NAME":"EARTH","FILE":"3530042","RA_OF_ASC_NODE":"37.6085","MEAN_MOTION_DDOT":"0.0000000000000","APOAPSIS":"412.633","INCLINATION":"97.6567","REF_FRAME":"TEME","EPOCH":"2022-08-05T22:00:00.999936","SEMIMAJOR_AXIS":"6789.758"},{"COUNTRY_CODE":"US","ECCENTRICITY":"0.00016880","MEAN_ANOMALY":"222.8972","MEAN_ELEMENT_THEORY":"SGP4","PERIAPSIS":"410.559","OBJECT_TYPE":"PAYLOAD","MEAN_MOTION_DOT":"0.00081079","BSTAR":"0.00135100000000","CLASSIFICATION_TYPE":"U","REV_AT_EPOCH":"130","MEAN_MOTION":"15.51720277","SITE":"AFWTR","DECAY_DATE":null,"TLE_LINE2":"2 53074  97.6577  37.6112 0001688  90.8027 222.8972 15.51720277  1304","PERIOD":"92.800","OBJECT_NAME":"STARLINK-4310","OBJECT_ID":"2022-077AH","INCLINATION":"97.6577","APOAPSIS":"412.851","MEAN_MOTION_DDOT":"0.0000000000000","RA_OF_ASC_NODE":"37.6112","CENTER_NAME":"EARTH","FILE":"3530042","RCS_SIZE":"LARGE","SEMIMAJOR_AXIS":"6789.840","EPOCH":"2022-08-05T22:00:00.999936","REF_FRAME":"TEME","ELEMENT_SET_NO":"999","ARG_OF_PERICENTER":"90.8027","NORAD_CAT_ID":"53074","LAUNCH_DATE":"2022-07-11","TIME_SYSTEM":"UTC","TLE_LINE1":"1 53074U 22077AH  22217.91667824  .00081079  00000-0  13510-2 0  9991","GP_ID":"209660031","EPHEMERIS_TYPE":"0"},{"REF_FRAME":"TEME","EPOCH":"2022-08-05T22:00:00.999936","SEMIMAJOR_AXIS":"6789.659","RCS_SIZE":"LARGE","FILE":"3530042","CENTER_NAME":"EARTH","MEAN_MOTION_DDOT":"0.0000000000000","RA_OF_ASC_NODE":"37.6066","APOAPSIS":"412.418","INCLINATION":"97.6555","EPHEMERIS_TYPE":"0","GP_ID":"209660412","TLE_LINE1":"1 53075U 22077AJ  22217.91667824  .00038558  00000-0  64543-3 0  9999","TIME_SYSTEM":"UTC","NORAD_CAT_ID":"53075","LAUNCH_DATE":"2022-07-11","ARG_OF_PERICENTER":"87.5136","ELEMENT_SET_NO":"999","MEAN_MOTION_DOT":"0.00038558","OBJECT_TYPE":"PAYLOAD","PERIAPSIS":"410.630","MEAN_ELEMENT_THEORY":"SGP4","MEAN_ANOMALY":"230.0030","ECCENTRICITY":"0.00013170","COUNTRY_CODE":"US","OBJECT_NAME":"STARLINK-4348","OBJECT_ID":"2022-077AJ","PERIOD":"92.797","TLE_LINE2":"2 53075  97.6555  37.6066 0001317  87.5136 230.0030 15.51782346  1303","SITE":"AFWTR","DECAY_DATE":null,"REV_AT_EPOCH":"130","MEAN_MOTION":"15.51782346","CLASSIFICATION_TYPE":"U","BSTAR":"0.00064543000000"},{"MEAN_MOTION_DDOT":"0.0000000000000","RA_OF_ASC_NODE":"37.6089","APOAPSIS":"412.674","INCLINATION":"97.6559","RCS_SIZE":"LARGE","CENTER_NAME":"EARTH","FILE":"3530042","EPOCH":"2022-08-05T22:00:00.999936","SEMIMAJOR_AXIS":"6789.813","REF_FRAME":"TEME","ELEMENT_SET_NO":"999","ARG_OF_PERICENTER":"79.2284","TIME_SYSTEM":"UTC","LAUNCH_DATE":"2022-07-11","NORAD_CAT_ID":"53076","EPHEMERIS_TYPE":"0","TLE_LINE1":"1 53076U 22077AK  22217.91667824  .00081342  00000-0  13549-2 0  9998","GP_ID":"209659770","MEAN_ANOMALY":"235.8758","MEAN_ELEMENT_THEORY":"SGP4","COUNTRY_CODE":"US","ECCENTRICITY":"0.00014670","OBJECT_TYPE":"PAYLOAD","PERIAPSIS":"410.682","MEAN_MOTION_DOT":"0.00081342","CLASSIFICATION_TYPE":"U","BSTAR":"0.00135490000000","REV_AT_EPOCH":"130","MEAN_MOTION":"15.51729612","DECAY_DATE":null,"SITE":"AFWTR","OBJECT_NAME":"STARLINK-4347","OBJECT_ID":"2022-077AK","PERIOD":"92.800","TLE_LINE2":"2 53076  97.6559  37.6089 0001467  79.2284 235.8758 15.51729612  1308"},{"FILE":"3530042","CENTER_NAME":"EARTH","RCS_SIZE":"LARGE","APOAPSIS":"412.718","INCLINATION":"97.6557","RA_OF_ASC_NODE":"37.6064","MEAN_MOTION_DDOT":"0.0000000000000","REF_FRAME":"TEME","EPOCH":"2022-08-05T22:00:00.999936","SEMIMAJOR_AXIS":"6789.794","ARG_OF_PERICENTER":"81.4372","ELEMENT_SET_NO":"999","EPHEMERIS_TYPE":"0","GP_ID":"209660282","TLE_LINE1":"1 53077U 22077AL  22217.91667824  .00081319  00000-0  13542-2 0  9996","TIME_SYSTEM":"UTC","NORAD_CAT_ID":"53077","LAUNCH_DATE":"2022-07-11","PERIAPSIS":"410.600","OBJECT_TYPE":"PAYLOAD","MEAN_ELEMENT_THEORY":"SGP4","MEAN_ANOMALY":"237.5808","COUNTRY_CODE":"US","ECCENTRICITY":"0.00015600","MEAN_MOTION_DOT":"0.00081319","REV_AT_EPOCH":"130","MEAN_MOTION":"15.51736125","CLASSIFICATION_TYPE":"U","BSTAR":"0.00135420000000","PERIOD":"92.799","TLE_LINE2":"2 53077  97.6557  37.6064 0001560  81.4372 237.5808 15.51736125  1309","OBJECT_ID":"2022-077AL","OBJECT_NAME":"STARLINK-4315","DECAY_DATE":null,"SITE":"AFWTR"},{"TIME_SYSTEM":"UTC","NORAD_CAT_ID":"53078","LAUNCH_DATE":"2022-07-11","EPHEMERIS_TYPE":"0","GP_ID":"209659640","TLE_LINE1":"1 53078U 22077AM  22217.91667824  .00081381  00000-0  13559-2 0  9994","ELEMENT_SET_NO":"999","ARG_OF_PERICENTER":"79.6429","EPOCH":"2022-08-05T22:00:00.999936","SEMIMAJOR_AXIS":"6789.836","REF_FRAME":"TEME","MEAN_MOTION_DDOT":"0.0000000000000","RA_OF_ASC_NODE":"37.6079","APOAPSIS":"412.829","INCLINATION":"97.6558","RCS_SIZE":"LARGE","CENTER_NAME":"EARTH","FILE":"3530042","DECAY_DATE":null,"SITE":"AFWTR","OBJECT_ID":"2022-077AM","OBJECT_NAME":"STARLINK-4322","PERIOD":"92.800","TLE_LINE2":"2 53078  97.6558  37.6079 0001661  79.6429 237.1139 15.51721755  1307","CLASSIFICATION_TYPE":"U","BSTAR":"0.00135590000000","MEAN_MOTION":"15.51721755","REV_AT_EPOCH":"130","MEAN_MOTION_DOT":"0.00081381","MEAN_ELEMENT_THEORY":"SGP4","MEAN_ANOMALY":"237.1139","COUNTRY_CODE":"US","ECCENTRICITY":"0.00016610","OBJECT_TYPE":"PAYLOAD","PERIAPSIS":"410.573"},{"ECCENTRICITY":"0.00014480","COUNTRY_CODE":"US","MEAN_ANOMALY":"240.6194","MEAN_ELEMENT_THEORY":"SGP4","PERIAPSIS":"410.548","OBJECT_TYPE":"PAYLOAD","MEAN_MOTION_DOT":"0.00052432","BSTAR":"0.00087557000000","CLASSIFICATION_TYPE":"U","MEAN_MOTION":"15.51780083","REV_AT_EPOCH":"130","SITE":"AFWTR","DECAY_DATE":null,"TLE_LINE2":"2 53079  97.6553  37.6047 0001448  79.2029 240.6194 15.51780083  1302","PERIOD":"92.797","OBJECT_NAME":"STARLINK-4327","OBJECT_ID":"2022-077AN","INCLINATION":"97.6553","APOAPSIS":"412.514","MEAN_MOTION_DDOT":"0.0000000000000","RA_OF_ASC_NODE":"37.6047","FILE":"3530042","CENTER_NAME":"EARTH","RCS_SIZE":"LARGE","SEMIMAJOR_AXIS":"6789.666","EPOCH":"2022-08-05T22:00:00.999936","REF_FRAME":"TEME","ELEMENT_SET_NO":"999","ARG_OF_PERICENTER":"79.2029","NORAD_CAT_ID":"53079","LAUNCH_DATE":"2022-07-11","TIME_SYSTEM":"UTC","GP_ID":"209660542","TLE_LINE1":"1 53079U 22077AN  22217.91667824  .00052432  00000-0  87557-3 0  9990","EPHEMERIS_TYPE":"0"},{"REF_FRAME":"TEME","EPOCH":"2022-08-05T22:00:00.999936","SEMIMAJOR_AXIS":"6789.663","RCS_SIZE":"LARGE","FILE":"3530042","CENTER_NAME":"EARTH","MEAN_MOTION_DDOT":"0.0000000000000","RA_OF_ASC_NODE":"37.6074","APOAPSIS":"412.394","INCLINATION":"97.6562","EPHEMERIS_TYPE":"0","GP_ID":"209660161","TLE_LINE1":"1 53080U 22077AP  22217.91667824  .00081474  00000-0  13546-2 0  9996","TIME_SYSTEM":"UTC","LAUNCH_DATE":"2022-07-11","NORAD_CAT_ID":"53080","ARG_OF_PERICENTER":"67.8296","ELEMENT_SET_NO":"999","MEAN_MOTION_DOT":"0.00081474","OBJECT_TYPE":"PAYLOAD","PERIAPSIS":"410.661","MEAN_ANOMALY":"250.2389","MEAN_ELEMENT_THEORY":"SGP4","COUNTRY_CODE":"US","ECCENTRICITY":"0.00012760","OBJECT_NAME":"STARLINK-4330","OBJECT_ID":"2022-077AP","PERIOD":"92.797","TLE_LINE2":"2 53080  97.6562  37.6074 0001276  67.8296 250.2389 15.51781062  1303","SITE":"AFWTR","DECAY_DATE":null,"MEAN_MOTION":"15.51781062","REV_AT_EPOCH":"130","CLASSIFICATION_TYPE":"U","BSTAR":"0.00135460000000"},{"TLE_LINE1":"1 53081U 22077AQ  22217.91667824  .00079728  00000-0  13287-2 0  9998","GP_ID":"209659891","EPHEMERIS_TYPE":"0","LAUNCH_DATE":"2022-07-11","NORAD_CAT_ID":"53081","TIME_SYSTEM":"UTC","ARG_OF_PERICENTER":"90.6163","ELEMENT_SET_NO":"999","REF_FRAME":"TEME","SEMIMAJOR_AXIS":"6789.838","EPOCH":"2022-08-05T22:00:00.999936","CENTER_NAME":"EARTH","FILE":"3530042","RCS_SIZE":"LARGE","INCLINATION":"97.6560","APOAPSIS":"412.851","RA_OF_ASC_NODE":"37.6043","MEAN_MOTION_DDOT":"0.0000000000000","TLE_LINE2":"2 53081  97.6560  37.6043 0001691  90.6163 230.7671 15.51721146  1300","PERIOD":"92.800","OBJECT_NAME":"STARLINK-4326","OBJECT_ID":"2022-077AQ","SITE":"AFWTR","DECAY_DATE":null,"REV_AT_EPOCH":"130","MEAN_MOTION":"15.51721146","BSTAR":"0.00132870000000","CLASSIFICATION_TYPE":"U","MEAN_MOTION_DOT":"0.00079728","PERIAPSIS":"410.554","OBJECT_TYPE":"PAYLOAD","ECCENTRICITY":"0.00016910","COUNTRY_CODE":"US","MEAN_ANOMALY":"230.7671","MEAN_ELEMENT_THEORY":"SGP4"}];
